ONEWEB-0208             
1 48243U 21031AK  24155.48920483  .00000038  00000+0  68142-4 0  9998
2 48243  87.8970  77.6693 0002064  74.1958 285.9399 13.14502454150602
ONEWEB-0200             
1 48244U 21031AL  24155.52885647  .00000144  00000+0  35508-3 0  9993
2 48244  87.8967  77.6591 0002145  74.2490 285.8876 13.14502349150532
ONEWEB-0217             
1 48245U 21031AM  24155.54470519  .00000222  00000+0  56441-3 0  9990
2 48245  87.8967  77.6404 0002288  73.3781 286.7600 13.14501840150481
ONEWEB-0211             
1 48767U 21045A   24156.16704880  .00000170  00000+0  41682-3 0  9997
2 48767  87.9050  47.0411 0002010  81.6347 278.5011 13.15548364147851
ONEWEB-0223             
1 48768U 21045B   24155.96106558 -.00000101  00000+0 -30316-3 0  9991
2 48768  87.9052  47.0888 0002566  87.3353 272.8071 13.15549418146682
ONEWEB-0230             
1 48769U 21045C   24156.16069711  .00000121  00000+0  28752-3 0  9995
2 48769  87.9052  47.1200 0001856  84.4230 275.7112 13.15546603148082
ONEWEB-0237             
1 48770U 21045D   24155.92143521  .00000210  00000+0  52250-3 0  9991
2 48770  87.9059  47.0980 0002264  85.6643 274.4746 13.15546554146666
ONEWEB-0235             
1 48771U 21045E   24155.97214640 -.00000056  00000+0 -18377-3 0  9990
2 48771  87.9048  47.0990 0002547  90.7934 269.3488 13.15547114146669
ONEWEB-0242             
1 48772U 21045F   24155.96580709 -.00000047  00000+0 -15796-3 0  9994
2 48772  87.9049  47.0889 0002001  85.5127 274.6232 13.15547180146703
ONEWEB-0241             
1 48773U 21045G   24155.95313415 -.00000125  00000+0 -36738-3 0  9998
2 48773  87.9058  47.1370 0002334  77.5305 282.6086 13.15547548146612
ONEWEB-0243             
1 48774U 21045H   24155.45243016  .00000362  00000+0  92729-3 0  9996
2 48774  87.9059  47.1954 0002388  88.2768 271.8636 13.15547200146574
ONEWEB-0222             
1 48775U 21045J   24155.96818156 -.00000041  00000+0 -14218-3 0  9999
2 48775  87.9047  47.0981 0002185  80.1253 280.0124 13.15546631146689
ONEWEB-0244             
1 48776U 21045K   24155.46192844  .00000204  00000+0  50729-3 0  9990
2 48776  87.9049  47.1816 0001930  86.8502 273.2849 13.15547551147183
ONEWEB-0247             
1 48777U 21045L   24155.45875907  .00000208  00000+0  51879-3 0  9999
2 48777  87.9056  47.2220 0002784  96.0209 264.1238 13.15547244146625
ONEWEB-0245             
1 48778U 21045M   24155.45399952  .00000166  00000+0  40634-3 0  9991
2 48778  87.9049  47.2135 0002100  76.1799 283.9565 13.15546276146590
ONEWEB-0229             
1 48779U 21045N   24156.13376744  .00000098  00000+0  22541-3 0  9993
2 48779  87.9050  47.0718 0001980  85.2703 274.8654 13.15547116147840
ONEWEB-0228             
1 48780U 21045P   24155.46430176  .00000169  00000+0  41483-3 0  9995
2 48780  87.9049  47.1804 0001958  82.8719 277.2634 13.15547486146543
ONEWEB-0232             
1 48781U 21045Q   24156.14168355  .00000202  00000+0  50259-3 0  9998
2 48781  87.9043  47.0679 0001985  83.3161 276.8195 13.15547197148070
ONEWEB-0231             
1 48782U 21045R   24156.11950745 -.00000019  00000+0 -83493-4 0  9993
2 48782  87.9058  47.0999 0002162  84.2946 275.8431 13.15547459147781
ONEWEB-0234             
1 48783U 21045S   24156.13931065  .00000170  00000+0  41834-3 0  9998
2 48783  87.9051  47.0562 0001972  39.3696 320.7578 13.15547258147916
ONEWEB-0238             
1 48784U 21045T   24155.94124030 -.00000029  00000+0 -11156-3 0  9992
2 48784  87.9052  47.1135 0001830  75.7158 284.4175 13.15546902146659
ONEWEB-0240             
1 48785U 21045U   24156.10286402 -.00000024  00000+0 -98705-4 0  9995
2 48785  87.9048  47.0489 0002331  78.2799 281.8593 13.15546545147820
ONEWEB-0246             
1 48786U 21045V   24155.94520456 -.00000023  00000+0 -96399-4 0  9993
2 48786  87.9051  47.0844 0001941  85.4087 274.7265 13.15546839146558
ONEWEB-0210             
1 48787U 21045W   24155.23533991  .00000191  00000+0  47200-3 0  9994
2 48787  87.9051  47.2310 0002477  99.7282 260.4129 13.15547504147630
ONEWEB-0214             
1 48788U 21045X   24155.92935650  .00000096  00000+0  22149-3 0  9998
2 48788  87.9051  47.0816 0002089  98.7753 261.3614 13.15546408146563
ONEWEB-0221             
1 48789U 21045Y   24156.16387230  .00000132  00000+0  31556-3 0  9994
2 48789  87.9054  47.0525 0002163  81.4357 278.7019 13.15548055147827
ONEWEB-0213             
1 48790U 21045Z   24155.92460344  .00000190  00000+0  46967-3 0  9993
2 48790  87.9051  47.1141 0002259  84.1225 276.0163 13.15546800146715
ONEWEB-0212             
1 48791U 21045AA  24155.44528748  .00000113  00000+0  26688-3 0  9997
2 48791  87.9053  47.1920 0001881  77.2267 282.9073 13.15547246146645
ONEWEB-0227             
1 48792U 21045AB  24156.12900986  .00000071  00000+0  15490-3 0  9994
2 48792  87.9049  47.0717 0002048  80.1518 279.9844 13.15547050147817
ONEWEB-0226             
1 48793U 21045AC  24155.97055818 -.00000059  00000+0 -19010-3 0  9992
2 48793  87.9050  47.1099 0002293  91.5095 268.6298 13.15546956146633
ONEWEB-0224             
1 48794U 21045AD  24155.93411142  .00000034  00000+0  56334-4 0  9997
2 48794  87.9056  47.1375 0002780  62.7261 297.4152 13.15546407146554
ONEWEB-0233             
1 48795U 21045AE  24156.15832185  .00000200  00000+0  49638-3 0  9990
2 48795  87.9055  47.1040 0001960  85.5577 274.5777 13.15547113147718
ONEWEB-0190             
1 48796U 21045AF  24155.92619909  .00000135  00000+0  32398-3 0  9994
2 48796  87.9055  47.1136 0002823  90.3278 269.8176 13.15547333146641
ONEWEB-0236             
1 48797U 21045AG  24155.94362581 -.00000062  00000+0 -19856-3 0  9993
2 48797  87.9059  47.1034 0002032  78.2300 281.9058 13.15547681146534
ONEWEB-0248             
1 48798U 21045AH  24156.10841684 -.00000039  00000+0 -13882-3 0  9996
2 48798  87.9049  47.0625 0002675  75.3340 284.8087 13.15547306147836
ONEWEB-0225             
1 48799U 21045AJ  24155.44608286  .00000166  00000+0  40761-3 0  9997
2 48799  87.9053  47.2057 0002347  83.9490 276.1908 13.15547634146637
ONEWEB-0215             
1 48800U 21045AK  24156.10049083 -.00000009  00000+0 -58269-4 0  9999
2 48800  87.9049  47.0502 0002834  81.8677 278.2774 13.15546792147711
ONEWEB-0216             
1 48801U 21045AL  24155.95787798 -.00000105  00000+0 -31237-3 0  9996
2 48801  87.9049  47.1195 0001911  89.6770 270.4579 13.15546667146588
ONEWEB-0239             
1 48802U 21045AM  24155.96264198 -.00000068  00000+0 -21516-3 0  9999
2 48802  87.9058  47.0931 0002854  75.8692 284.2756 13.15547288146628
ONEWEB-0249             
1 48967U 21060A   24156.10582547 -.00000022  00000+0 -90845-4 0  9998
2 48967  87.9117  16.7011 0001831  83.6660 276.4680 13.16593086143123
ONEWEB-0250             
1 48968U 21060B   24155.35053511 -.00000003  00000+0 -40829-4 0  9995
2 48968  87.9116  16.8345 0002180  81.7448 278.3930 13.16599347141713
ONEWEB-0252             
1 48970U 21060D   24155.90949743  .00000127  00000+0  29945-3 0  9990
2 48970  87.9118  16.7331 0001844  89.2213 270.9129 13.16592721141853
ONEWEB-0253             
1 48971U 21060E   24155.89841499  .00000126  00000+0  29572-3 0  9993
2 48971  87.9115  16.7479 0002156  87.5366 272.6012 13.16592222141789
ONEWEB-0254             
1 48972U 21060F   24155.90792826 -.00002453  00000+0 -64511-2 0  9993
2 48972  87.9113  16.7232 0002193  74.2839 285.8533 13.16601844141789
ONEWEB-0255             
1 48973U 21060G   24155.86991970  .00000025  00000+0  32435-4 0  9993
2 48973  87.9117  16.7658 0001907  83.8543 276.2805 13.16592875141853
ONEWEB-0256             
1 48974U 21060H   24155.89603982  .00000063  00000+0  13221-3 0  9993
2 48974  87.9118  16.7632 0001708  88.7929 271.3398 13.16592031141822
ONEWEB-0257             
1 48975U 21060J   24155.85249851  .00000035  00000+0  56862-4 0  9999
2 48975  87.9120  16.7429 0001853  89.0530 271.0813 13.16592656141779
ONEWEB-0258             
1 48976U 21060K   24156.15806893  .00000014  00000+0  23115-5 0  9992
2 48976  87.9119  16.7109 0001870  82.4813 277.6530 13.16592595143102
ONEWEB-0259             
1 48977U 21060L   24155.84774819  .00000086  00000+0  19011-3 0  9997
2 48977  87.9118  16.7572 0002018  79.4586 280.6773 13.16592525141816
ONEWEB-0260             
1 48978U 21060M   24156.14302660  .00000079  00000+0  17369-3 0  9999
2 48978  87.9115  16.7272 0001742 104.5038 255.6286 13.16592528143115
ONEWEB-0261             
1 48979U 21060N   24155.35218501  .00000031  00000+0  46398-4 0  9995
2 48979  87.9119  16.8778 0002363  93.4652 266.6750 13.16592675141782
ONEWEB-0262             
1 48980U 21060P   24156.09315891 -.00000046  00000+0 -15332-3 0  9990
2 48980  87.9119  16.6950 0002297  79.3724 280.7666 13.16593919143140
ONEWEB-0263             
1 48981U 21060Q   24155.89683476  .00000139  00000+0  33116-3 0  9996
2 48981  87.9119  16.7499 0002371  86.4525 273.6877 13.16592726141789
ONEWEB-0264             
1 48982U 21060R   24155.85803944 -.00000003  00000+0 -40641-4 0  9991
2 48982  87.9120  16.7693 0001896  85.6001 274.5346 13.16592431141783
ONEWEB-0266             
1 48984U 21060T   24156.10741217  .00000005  00000+0 -21574-4 0  9991
2 48984  87.9115  16.6976 0001810  81.1208 279.0128 13.16593312143103
ONEWEB-0267             
1 48985U 21060U   24155.89049930 -.00000005  00000+0 -46320-4 0  9997
2 48985  87.9116  16.7421 0002134  92.1984 267.9391 13.16592113141782
ONEWEB-0268             
1 48986U 21060V   24155.85883160  .00000006  00000+0 -19103-4 0  9994
2 48986  87.9118  16.7545 0001847  88.9618 271.1725 13.16593816142048
ONEWEB-0269             
1 48987U 21060W   24155.91583155  .00000079  00000+0  17200-3 0  9997
2 48987  87.9121  16.7683 0001697  84.6471 275.4854 13.16592137141829
ONEWEB-0270             
1 48988U 21060X   24155.85725564 -.00000032  00000+0 -11688-3 0  9998
2 48988  87.9117  16.7632 0002378  85.0130 275.1272 13.16592562141859
